CCSDS_OMM_VERS = 2.0
CREATION_DATE  = 
ORIGINATOR     = 

OBJECT_NAME    = SL-16 R/B
OBJECT_ID      = 1996-051B
CENTER_NAME    = EARTH
REF_FRAME      = TEME
TIME_SYSTEM    = UTC
MEAN_ELEMENT_THEORY = SGP/SGP4

EPOCH          = 2025-10-31T20:16:59.990592
MEAN_MOTION    = 14.12392498
ECCENTRICITY   = .0017315
INCLINATION    = 70.7586
RA_OF_ASC_NODE = 87.9562
ARG_OF_PERICENTER = 315.0817
MEAN_ANOMALY   = 44.8900

EPHEMERIS_TYPE = 0
CLASSIFICATION_TYPE = U
NORAD_CAT_ID   = 24298
ELEMENT_SET_NO = 999
REV_AT_EPOCH   = 50345
BSTAR          = -.16213E-5
MEAN_MOTION_DOT = -.52E-6
MEAN_MOTION_DDOT = 0

CCSDS_OMM_VERS = 2.0
CREATION_DATE  = 
ORIGINATOR     = 

OBJECT_NAME    = ORBVIEW 2 (SEASTAR)
OBJECT_ID      = 1997-037A
CENTER_NAME    = EARTH
REF_FRAME      = TEME
TIME_SYSTEM    = UTC
MEAN_ELEMENT_THEORY = SGP/SGP4

EPOCH          = 2025-10-31T16:08:55.762368
MEAN_MOTION    = 14.35368255
ECCENTRICITY   = .0003242
INCLINATION    = 98.8440
RA_OF_ASC_NODE = 100.6951
ARG_OF_PERICENTER = 84.9120
MEAN_ANOMALY   = 275.2434

EPHEMERIS_TYPE = 0
CLASSIFICATION_TYPE = U
NORAD_CAT_ID   = 24883
ELEMENT_SET_NO = 999
REV_AT_EPOCH   = 48996
BSTAR          = .17364E-3
MEAN_MOTION_DOT = .452E-5
MEAN_MOTION_DDOT = 0

CCSDS_OMM_VERS = 2.0
CREATION_DATE  = 
ORIGINATOR     = 

OBJECT_NAME    = SL-16 R/B
OBJECT_ID      = 1998-043G
CENTER_NAME    = EARTH
REF_FRAME      = TEME
TIME_SYSTEM    = UTC
MEAN_ELEMENT_THEORY = SGP/SGP4

EPOCH          = 2025-10-31T20:09:14.259168
MEAN_MOTION    = 14.26009435
ECCENTRICITY   = .0010486
INCLINATION    = 98.8050
RA_OF_ASC_NODE = 252.4387
ARG_OF_PERICENTER = 33.5655
MEAN_ANOMALY   = 326.6187

EPHEMERIS_TYPE = 0
CLASSIFICATION_TYPE = U
NORAD_CAT_ID   = 25400
ELEMENT_SET_NO = 999
REV_AT_EPOCH   = 42062
BSTAR          = .71837E-4
MEAN_MOTION_DOT = .126E-5
MEAN_MOTION_DDOT = 0

CCSDS_OMM_VERS = 2.0
CREATION_DATE  = 
ORIGINATOR     = 

OBJECT_NAME    = SL-16 R/B
OBJECT_ID      = 1998-045B
CENTER_NAME    = EARTH
REF_FRAME      = TEME
TIME_SYSTEM    = UTC
MEAN_ELEMENT_THEORY = SGP/SGP4

EPOCH          = 2025-10-31T17:41:53.604672
MEAN_MOTION    = 14.16164920
ECCENTRICITY   = .0009093
INCLINATION    = 71.0096
RA_OF_ASC_NODE = 92.7526
ARG_OF_PERICENTER = 232.4702
MEAN_ANOMALY   = 127.5596

EPHEMERIS_TYPE = 0
CLASSIFICATION_TYPE = U
NORAD_CAT_ID   = 25407
ELEMENT_SET_NO = 999
REV_AT_EPOCH   = 40884
BSTAR          = .19596E-3
MEAN_MOTION_DOT = .34E-5
MEAN_MOTION_DDOT = 0

CCSDS_OMM_VERS = 2.0
CREATION_DATE  = 
ORIGINATOR     = 

OBJECT_NAME    = ISS (ZARYA)
OBJECT_ID      = 1998-067A
CENTER_NAME    = EARTH
REF_FRAME      = TEME
TIME_SYSTEM    = UTC
MEAN_ELEMENT_THEORY = SGP/SGP4

EPOCH          = 2025-10-31T14:49:27.628032
MEAN_MOTION    = 15.49657005
ECCENTRICITY   = .0004897
INCLINATION    = 51.6344
RA_OF_ASC_NODE = 351.0134
ARG_OF_PERICENTER = 1.8672
MEAN_ANOMALY   = 358.2334

EPHEMERIS_TYPE = 0
CLASSIFICATION_TYPE = U
NORAD_CAT_ID   = 25544
ELEMENT_SET_NO = 999
REV_AT_EPOCH   = 53632
BSTAR          = .27275E-3
MEAN_MOTION_DOT = .14957E-3
MEAN_MOTION_DDOT = 0

CCSDS_OMM_VERS = 2.0
CREATION_DATE  = 
ORIGINATOR     = 

OBJECT_NAME    = CZ-4B R/B
OBJECT_ID      = 1999-025C
CENTER_NAME    = EARTH
REF_FRAME      = TEME
TIME_SYSTEM    = UTC
MEAN_ELEMENT_THEORY = SGP/SGP4

EPOCH          = 2025-10-31T20:44:57.265152
MEAN_MOTION    = 14.18227850
ECCENTRICITY   = .0036997
INCLINATION    = 98.6835
RA_OF_ASC_NODE = 347.0677
ARG_OF_PERICENTER = 357.1623
MEAN_ANOMALY   = 176.1182

EPHEMERIS_TYPE = 0
CLASSIFICATION_TYPE = U
NORAD_CAT_ID   = 25732
ELEMENT_SET_NO = 999
REV_AT_EPOCH   = 36990
BSTAR          = .6318E-4
MEAN_MOTION_DOT = .87E-6
MEAN_MOTION_DDOT = 0

CCSDS_OMM_VERS = 2.0
CREATION_DATE  = 
ORIGINATOR     = 

OBJECT_NAME    = OKEAN-O
OBJECT_ID      = 1999-039A
CENTER_NAME    = EARTH
REF_FRAME      = TEME
TIME_SYSTEM    = UTC
MEAN_ELEMENT_THEORY = SGP/SGP4

EPOCH          = 2025-10-31T17:45:40.692384
MEAN_MOTION    = 14.80053863
ECCENTRICITY   = .0001783
INCLINATION    = 97.9664
RA_OF_ASC_NODE = 0.7939
ARG_OF_PERICENTER = 76.2086
MEAN_ANOMALY   = 283.9324

EPHEMERIS_TYPE = 0
CLASSIFICATION_TYPE = U
NORAD_CAT_ID   = 25860
ELEMENT_SET_NO = 999
REV_AT_EPOCH   = 41531
BSTAR          = .14228E-3
MEAN_MOTION_DOT = .1025E-4
MEAN_MOTION_DDOT = 0

CCSDS_OMM_VERS = 2.0
CREATION_DATE  = 
ORIGINATOR     = 

OBJECT_NAME    = SL-16 R/B
OBJECT_ID      = 1999-039B
CENTER_NAME    = EARTH
REF_FRAME      = TEME
TIME_SYSTEM    = UTC
MEAN_ELEMENT_THEORY = SGP/SGP4

EPOCH          = 2025-10-31T15:22:32.757888
MEAN_MOTION    = 14.81494894
ECCENTRICITY   = .0013917
INCLINATION    = 98.0189
RA_OF_ASC_NODE = 358.7768
ARG_OF_PERICENTER = 320.3497
MEAN_ANOMALY   = 39.6697

EPHEMERIS_TYPE = 0
CLASSIFICATION_TYPE = U
NORAD_CAT_ID   = 25861
ELEMENT_SET_NO = 999
REV_AT_EPOCH   = 41775
BSTAR          = .11387E-3
MEAN_MOTION_DOT = .839E-5
MEAN_MOTION_DDOT = 0

CCSDS_OMM_VERS = 2.0
CREATION_DATE  = 
ORIGINATOR     = 

OBJECT_NAME    = DELTA 2 R/B
OBJECT_ID      = 1999-041E
CENTER_NAME    = EARTH
REF_FRAME      = TEME
TIME_SYSTEM    = UTC
MEAN_ELEMENT_THEORY = SGP/SGP4

EPOCH          = 2025-10-31T18:57:21.305088
MEAN_MOTION    = 14.11254701
ECCENTRICITY   = .0504666
INCLINATION    = 51.7630
RA_OF_ASC_NODE = 95.8766
ARG_OF_PERICENTER = 328.1321
MEAN_ANOMALY   = 28.9971

EPHEMERIS_TYPE = 0
CLASSIFICATION_TYPE = U
NORAD_CAT_ID   = 25876
ELEMENT_SET_NO = 999
REV_AT_EPOCH   = 34482
BSTAR          = .18009E-3
MEAN_MOTION_DOT = .877E-5
MEAN_MOTION_DDOT = 0

CCSDS_OMM_VERS = 2.0
CREATION_DATE  = 
ORIGINATOR     = 

OBJECT_NAME    = HELIOS 1B
OBJECT_ID      = 1999-064A
CENTER_NAME    = EARTH
REF_FRAME      = TEME
TIME_SYSTEM    = UTC
MEAN_ELEMENT_THEORY = SGP/SGP4

EPOCH          = 2025-10-31T16:24:57.157632
MEAN_MOTION    = 14.87021500
ECCENTRICITY   = .0002496
INCLINATION    = 98.1758
RA_OF_ASC_NODE = 198.1094
ARG_OF_PERICENTER = 99.2417
MEAN_ANOMALY   = 260.9081

EPHEMERIS_TYPE = 0
CLASSIFICATION_TYPE = U
NORAD_CAT_ID   = 25977
ELEMENT_SET_NO = 999
REV_AT_EPOCH   = 66608
BSTAR          = .27903E-3
MEAN_MOTION_DOT = .2442E-4
MEAN_MOTION_DDOT = 0

CCSDS_OMM_VERS = 2.0
CREATION_DATE  = 
ORIGINATOR     = 

OBJECT_NAME    = TERRA
OBJECT_ID      = 1999-068A
CENTER_NAME    = EARTH
REF_FRAME      = TEME
TIME_SYSTEM    = UTC
MEAN_ELEMENT_THEORY = SGP/SGP4

EPOCH          = 2025-10-31T19:56:22.110144
MEAN_MOTION    = 14.60878322
ECCENTRICITY   = .0001529
INCLINATION    = 97.9810
RA_OF_ASC_NODE = 358.0389
ARG_OF_PERICENTER = 196.5621
MEAN_ANOMALY   = 294.8372

EPHEMERIS_TYPE = 0
CLASSIFICATION_TYPE = U
NORAD_CAT_ID   = 25994
ELEMENT_SET_NO = 999
REV_AT_EPOCH   = 37626
BSTAR          = .15061E-3
MEAN_MOTION_DOT = .692E-5
MEAN_MOTION_DDOT = 0

CCSDS_OMM_VERS = 2.0
CREATION_DATE  = 
ORIGINATOR     = 

OBJECT_NAME    = SL-16 R/B
OBJECT_ID      = 2000-006B
CENTER_NAME    = EARTH
REF_FRAME      = TEME
TIME_SYSTEM    = UTC
MEAN_ELEMENT_THEORY = SGP/SGP4

EPOCH          = 2025-10-31T15:34:15.976128
MEAN_MOTION    = 14.15797529
ECCENTRICITY   = .001605
INCLINATION    = 71.0044
RA_OF_ASC_NODE = 9.1601
ARG_OF_PERICENTER = 10.2298
MEAN_ANOMALY   = 349.9149

EPHEMERIS_TYPE = 0
CLASSIFICATION_TYPE = U
NORAD_CAT_ID   = 26070
ELEMENT_SET_NO = 999
REV_AT_EPOCH   = 33029
BSTAR          = .20329E-3
MEAN_MOTION_DOT = .352E-5
MEAN_MOTION_DDOT = 0

