SL-16 R/B               
1 24298U 96051B   25304.84513878 -.00000052  00000+0 -16213-5 0  9990
2 24298  70.7586  87.9562 0017315 315.0817  44.8900 14.12392498503454
ORBVIEW 2 (SEASTAR)     
1 24883U 97037A   25304.67286762  .00000452  00000+0  17364-3 0  9993
2 24883  98.8440 100.6951 0003242  84.9120 275.2434 14.35368255489962
SL-16 R/B               
1 25400U 98043G   25304.83974837  .00000126  00000+0  71837-4 0  9996
2 25400  98.8050 252.4387 0010486  33.5655 326.6187 14.26009435420621
SL-16 R/B               
1 25407U 98045B   25304.73742598  .00000340  00000+0  19596-3 0  9992
2 25407  71.0096  92.7526 0009093 232.4702 127.5596 14.16164920408848
ISS (ZARYA)             
1 25544U 98067A   25304.61768088  .00014957  00000+0  27275-3 0  9999
2 25544  51.6344 351.0134 0004897   1.8672 358.2334 15.49657005536323
CZ-4B R/B               
1 25732U 99025C   25304.86455168  .00000087  00000+0  63180-4 0  9997
2 25732  98.6835 347.0677 0036997 357.1623 176.1182 14.18227850369906
OKEAN-O                 
1 25860U 99039A   25304.74005431  .00001025  00000+0  14228-3 0  9996
2 25860  97.9664   0.7939 0001783  76.2086 283.9324 14.80053863415313
SL-16 R/B               
1 25861U 99039B   25304.64065692  .00000839  00000+0  11387-3 0  9996
2 25861  98.0189 358.7768 0013917 320.3497  39.6697 14.81494894417758
DELTA 2 R/B             
1 25876U 99041E   25304.78982992  .00000877  00000+0  18009-3 0  9991
2 25876  51.7630  95.8766 0504666 328.1321  28.9971 14.11254701344823
HELIOS 1B               
1 25977U 99064A   25304.68399488  .00002442  00000+0  27903-3 0  9992
2 25977  98.1758 198.1094 0002496  99.2417 260.9081 14.87021500666085
TERRA                   
1 25994U 99068A   25304.83081146  .00000692  00000+0  15061-3 0  9998
2 25994  97.9810 358.0389 0001529 196.5621 294.8372 14.60878322376268
SL-16 R/B               
1 26070U 00006B   25304.64879602  .00000352  00000+0  20329-3 0  9995
2 26070  71.0044   9.1601 0016050  10.2298 349.9149 14.15797529330290
